{
  "norad_id": 56958,
  "name": "GHOST-3",
  "history": [
    {
      "epoch": "2026-04-30T13:24:41.736096Z",
      "apogee_km": 432.6691339826448,
      "perigee_km": 422.48764764368116,
      "latitude_deg": 4.605735620805708e-05,
      "longitude_deg": -153.02403699946694,
      "height_km": 432.3274652145174,
      "semi_major_axis_km": 6805.715390813163,
      "eccentricity": 0.00074801,
      "inclination_deg": 97.6151,
      "raan_deg": 266.6537,
      "arg_perigee_deg": 108.8271,
      "mean_anomaly_deg": 251.379,
      "mean_motion_rev_day": 15.46294058
    },
    {
      "epoch": "2026-05-02T10:27:01.641024Z",
      "apogee_km": 432.3810605075878,
      "perigee_km": 422.28038531324455,
      "latitude_deg": -2.8138031051289626e-05,
      "longitude_deg": -108.48554721276955,
      "height_km": 431.5306619100103,
      "semi_major_axis_km": 6805.467722910415,
      "eccentricity": 0.0007421,
      "inclination_deg": 97.6161,
      "raan_deg": 268.6248,
      "arg_perigee_deg": 102.5122,
      "mean_anomaly_deg": 257.6957,
      "mean_motion_rev_day": 15.46378469
    },
    {
      "epoch": "2026-05-03T20:36:58.732704Z",
      "apogee_km": 432.1991117324551,
      "perigee_km": 422.1231872922872,
      "latitude_deg": -3.15264919297352e-05,
      "longitude_deg": 99.11892543405187,
      "height_km": 430.95644063930155,
      "semi_major_axis_km": 6805.298149512371,
      "eccentricity": 0.0007403,
      "inclination_deg": 97.6166,
      "raan_deg": 270.1203,
      "arg_perigee_deg": 97.869,
      "mean_anomaly_deg": 262.3399,
      "mean_motion_rev_day": 15.46436268
    },
    {
      "epoch": "2026-05-04T19:54:37.841760Z",
      "apogee_km": 432.09897493087556,
      "perigee_km": 422.0027981823814,
      "latitude_deg": 9.692661476763122e-06,
      "longitude_deg": 109.76930348775832,
      "height_km": 430.58332762725775,
      "semi_major_axis_km": 6805.187886556629,
      "eccentricity": 0.0007418,
      "inclination_deg": 97.6168,
      "raan_deg": 271.1403,
      "arg_perigee_deg": 94.8529,
      "mean_anomaly_deg": 265.3567,
      "mean_motion_rev_day": 15.46473853
    },
    {
      "epoch": "2026-05-05T20:45:25.047072Z",
      "apogee_km": 431.9373670419136,
      "perigee_km": 421.8999099751136,
      "latitude_deg": 4.2593051670772726e-05,
      "longitude_deg": 97.13999909337639,
      "height_km": 430.17340480266716,
      "semi_major_axis_km": 6805.055638508513,
      "eccentricity": 0.0007375,
      "inclination_deg": 97.6171,
      "raan_deg": 272.2281,
      "arg_perigee_deg": 91.7053,
      "mean_anomaly_deg": 268.5041,
      "mean_motion_rev_day": 15.46518934
    },
    {
      "epoch": "2026-05-06T10:43:58.106784Z",
      "apogee_km": 431.88693244087153,
      "perigee_km": 421.83839773541695,
      "latitude_deg": 1.8889940364910514e-05,
      "longitude_deg": -112.45961654235103,
      "height_km": 429.93236436814954,
      "semi_major_axis_km": 6804.999665088144,
      "eccentricity": 0.00073832,
      "inclination_deg": 97.617,
      "raan_deg": 272.8402,
      "arg_perigee_deg": 89.5931,
      "mean_anomaly_deg": 270.6164,
      "mean_motion_rev_day": 15.46538015
    },
    {
      "epoch": "2026-05-07T20:53:43.241568Z",
      "apogee_km": 431.7218373105479,
      "perigee_km": 421.76085638643144,
      "latitude_deg": -1.7674388820316402e-05,
      "longitude_deg": 95.19541604282246,
      "height_km": 429.4136536430408,
      "semi_major_axis_km": 6804.87834684849,
      "eccentricity": 0.0007319,
      "inclination_deg": 97.6171,
      "raan_deg": 274.3363,
      "arg_perigee_deg": 85.0093,
      "mean_anomaly_deg": 275.1991,
      "mean_motion_rev_day": 15.46579373
    },
    {
      "epoch": "2026-05-08T20:11:14.805312Z",
      "apogee_km": 431.60342596895043,
      "perigee_km": 421.6942967976047,
      "latitude_deg": 3.1804818394043487e-06,
      "longitude_deg": 105.87742225204136,
      "height_km": 429.0717068358003,
      "semi_major_axis_km": 6804.785861383278,
      "eccentricity": 0.0007281,
      "inclination_deg": 97.6171,
      "raan_deg": 275.3564,
      "arg_perigee_deg": 82.0774,
      "mean_anomaly_deg": 278.1301,
      "mean_motion_rev_day": 15.46610903
    },
    {
      "epoch": "2026-05-09T08:36:34.979616Z",
      "apogee_km": 431.54586806067255,
      "perigee_km": 421.6694616540981,
      "latitude_deg": -7.032866306927253e-06,
      "longitude_deg": -80.42260167082144,
      "height_km": 428.87542647153657,
      "semi_major_axis_km": 6804.744664857385,
      "eccentricity": 0.0007257,
      "inclination_deg": 97.617,
      "raan_deg": 275.9006,
      "arg_perigee_deg": 80.2282,
      "mean_anomaly_deg": 279.9786,
      "mean_motion_rev_day": 15.46624948
    },
    {
      "epoch": "2026-05-10T20:19:23.231424Z",
      "apogee_km": 431.3920081404649,
      "perigee_km": 421.6069408901121,
      "latitude_deg": -1.4332700075447352e-05,
      "longitude_deg": 103.97405062498804,
      "height_km": 428.3592073981205,
      "semi_major_axis_km": 6804.636474515289,
      "eccentricity": 0.000719,
      "inclination_deg": 97.6168,
      "raan_deg": 277.465,
      "arg_perigee_deg": 75.2383,
      "mean_anomaly_deg": 284.9662,
      "mean_motion_rev_day": 15.46661834
    },
    {
      "epoch": "2026-05-11T08:44:41.919648Z",
      "apogee_km": 431.3401163352246,
      "perigee_km": 421.5815065218985,
      "latitude_deg": 3.608677207014344e-05,
      "longitude_deg": -82.31987145100301,
      "height_km": 428.1895306156364,
      "semi_major_axis_km": 6804.597811428562,
      "eccentricity": 0.00071706,
      "inclination_deg": 97.6168,
      "raan_deg": 278.0091,
      "arg_perigee_deg": 73.5981,
      "mean_anomaly_deg": 286.6056,
      "mean_motion_rev_day": 15.46675016
    },
    {
      "epoch": "2026-05-12T20:27:26.244576Z",
      "apogee_km": 431.18370998150385,
      "perigee_km": 421.54173387553055,
      "latitude_deg": -2.3656890147223352e-05,
      "longitude_deg": 102.0927970995563,
      "height_km": 427.7267288853955,
      "semi_major_axis_km": 6804.499721928517,
      "eccentricity": 0.0007085,
      "inclination_deg": 97.6168,
      "raan_deg": 279.5731,
      "arg_perigee_deg": 68.8033,
      "mean_anomaly_deg": 291.3972,
      "mean_motion_rev_day": 15.4670846
    },
    {
      "epoch": "2026-05-13T08:52:43.616064Z",
      "apogee_km": 431.1288255491818,
      "perigee_km": 421.5277250457366,
      "latitude_deg": 2.9121665511997555e-06,
      "longitude_deg": -84.19571986812171,
      "height_km": 427.5816013192146,
      "semi_major_axis_km": 6804.465275297459,
      "eccentricity": 0.0007055,
      "inclination_deg": 97.617,
      "raan_deg": 280.1171,
      "arg_perigee_deg": 67.2811,
      "mean_anomaly_deg": 292.9183,
      "mean_motion_rev_day": 15.46720205
    }
  ]
}